{"type":"FeatureCollection","attribution":"Data © OpenStreetMap contributors, licensed under the Open Database License (ODbL) — https://www.openstreetmap.org/copyright","features":[{"type":"Feature","properties":{"@id":"node/2114763939","power":"tower"},"geometry":{"type":"Point","coordinates":[85.7787404,20.2286807]}},{"type":"Feature","properties":{"@id":"node/2114763992","power":"tower"},"geometry":{"type":"Point","coordinates":[85.7735486,20.285862]}},{"type":"Feature","properties":{"@id":"node/2114763993","power":"tower"},"geometry":{"type":"Point","coordinates":[85.7759971,20.286825]}},{"type":"Feature","properties":{"@id":"node/2114763994","power":"tower"},"geometry":{"type":"Point","coordinates":[85.7955608,20.2869303]}},{"type":"Feature","properties":{"@id":"node/2114763995","power":"tower"},"geometry":{"type":"Point","coordinates":[85.778404,20.2877667]}},{"type":"Feature","properties":{"@id":"node/2114763996","power":"tower"},"geometry":{"type":"Point","coordinates":[85.7980717,20.2879367]}},{"type":"Feature","properties":{"@id":"node/2114763997","power":"tower"},"geometry":{"type":"Point","coordinates":[85.7801189,20.2879813]}},{"type":"Feature","properties":{"@id":"node/2114763998","power":"tower"},"geometry":{"type":"Point","coordinates":[85.7993685,20.2884374]}},{"type":"Feature","properties":{"@id":"node/2114763999","power":"tower"},"geometry":{"type":"Point","coordinates":[85.800615,20.2889254]}},{"type":"Feature","properties":{"@id":"node/2114764000","power":"tower"},"geometry":{"type":"Point","coordinates":[85.801932,20.289496]}},{"type":"Feature","properties":{"@id":"node/3724387272","power":"tower"},"geometry":{"type":"Point","coordinates":[85.7790697,20.28785]}},{"type":"Feature","properties":{"@id":"way/201481926","cables":"6","power":"line","voltage":"132000"},"geometry":{"type":"LineString","coordinates":[[85.7787404,20.2286807],[85.7784134,20.2271089],[85.7782489,20.2251715],[85.7781033,20.2250065],[85.7772968,20.2251739],[85.7761369,20.2254323],[85.7744825,20.2258847],[85.7744233,20.2258497],[85.7743086,20.2257818],[85.77398,20.2252112],[85.7737866,20.2248428],[85.7728567,20.223349],[85.7709828,20.221043],[85.7709374,20.2208691]]}},{"type":"Feature","properties":{"@id":"way/201481969","power":"substation","voltage":"132000"},"geometry":{"type":"LineString","coordinates":[[85.778194,20.230155],[85.7807787,20.230139],[85.7807163,20.228718],[85.7781297,20.2287641],[85.778194,20.230155]]}},{"type":"Feature","properties":{"@id":"way/201481971","power":"line"},"geometry":{"type":"LineString","coordinates":[[85.8119358,20.2956002],[85.8106108,20.2949386],[85.8095688,20.2946254],[85.8084422,20.2944468],[85.8044203,20.2945323],[85.8044317,20.2930826],[85.8045249,20.2909059],[85.8037497,20.2904342],[85.801932,20.289496],[85.800615,20.2889254],[85.7993685,20.2884374],[85.7980717,20.2879367],[85.7955608,20.2869303]]}},{"type":"Feature","properties":{"@id":"way/465589975","cables":"6","power":"line","voltage":"132000"},"geometry":{"type":"LineString","coordinates":[[85.8112734,20.356658],[85.8100033,20.3563913],[85.8079535,20.3549294],[85.8070207,20.3540923],[85.8071029,20.3516741],[85.8071905,20.3495314],[85.8072425,20.3470852],[85.8072764,20.3450307],[85.8073024,20.3426952],[85.8074642,20.3407848],[85.80761,20.3388688],[85.8069548,20.3379042],[85.805235,20.3371775],[85.8031117,20.3374135],[85.8018852,20.3365894],[85.8015816,20.3344505],[85.801272,20.3322834],[85.8011002,20.3305789],[85.8009684,20.3289437],[85.8003402,20.325921],[85.7998976,20.3236955],[85.8008524,20.322673],[85.8032022,20.3227947],[85.8048774,20.324347],[85.8062954,20.3246782],[85.8081559,20.3234265],[85.8097336,20.3222961],[85.8101553,20.3219767],[85.8102626,20.3202377],[85.809971,20.3172125],[85.8097712,20.3144289],[85.8096014,20.3117894],[85.8093075,20.3089902],[85.8090458,20.3064556],[85.8091857,20.3039509],[85.8089478,20.3027568],[85.8070173,20.3008026],[85.8055115,20.299249],[85.8043371,20.2980977],[85.8002284,20.2965468],[85.8035941,20.2967996],[85.8011229,20.2964609],[85.7983,20.2962818],[85.7950196,20.2961186],[85.7918147,20.2959471],[85.7894069,20.2947246],[85.7868707,20.2934571],[85.7842855,20.2921669],[85.782161,20.2899941],[85.7801189,20.2879813],[85.7790697,20.28785],[85.778404,20.2877667],[85.7759971,20.286825],[85.7735486,20.285862],[85.7711306,20.2849713],[85.7690695,20.2841717],[85.7678518,20.2820506],[85.7666512,20.2800926],[85.765813,20.2773935],[85.7648922,20.2745913],[85.7640413,20.2719965],[85.7632491,20.2695737],[85.762421,20.2670019],[85.7617195,20.2643201],[85.7610427,20.2616844],[85.7602901,20.2588606],[85.7595074,20.255838],[85.7588339,20.2532997],[85.7581134,20.2505843],[85.7574258,20.2485144],[85.7573349,20.2483365],[85.7565106,20.2459346],[85.7556314,20.2435096],[85.7547503,20.2417552],[85.7537312,20.2397701],[85.7534424,20.2371606],[85.75355,20.2367206],[85.7534103,20.2357324],[85.7531163,20.2348388],[85.7526535,20.2339118],[85.7523165,20.2312449],[85.7519609,20.2287811],[85.7539129,20.2267739],[85.7559718,20.2246889],[85.7579397,20.2226791],[85.7605361,20.2223103],[85.7630148,20.2219716],[85.765547,20.2216128],[85.7682857,20.2212303],[85.7709374,20.2208691],[85.7731978,20.2200043],[85.775807,20.2190143],[85.7783576,20.2180349],[85.7812088,20.2168515],[85.7823659,20.2155084],[85.7844022,20.2142078],[85.7868016,20.2126749],[85.7891347,20.2111312],[85.7915133,20.2095858],[85.7937115,20.2080167],[85.7963742,20.2064511],[85.7989985,20.2047247],[85.800912,20.2034648],[85.8034493,20.2018182],[85.8058297,20.200207],[85.8081326,20.198665],[85.8105528,20.1970325],[85.8130429,20.1952829],[85.8152134,20.1936521],[85.8175107,20.1920249],[85.8199554,20.1903213],[85.822211,20.1887491],[85.8244345,20.1872371],[85.8267072,20.1857039],[85.8279513,20.1849124]]}},{"type":"Feature","properties":{"@id":"way/1467361024","power":"substation"},"geometry":{"type":"LineString","coordinates":[[85.8744112,20.2717182],[85.8744219,20.2709559],[85.8749503,20.2709483],[85.8749905,20.2712905],[85.8751783,20.2717711],[85.8744112,20.2717182]]}},{"type":"Feature","properties":{"@id":"way/1467624218","power":"substation"},"geometry":{"type":"LineString","coordinates":[[85.7887803,20.2455099],[85.789019,20.2454608],[85.7890955,20.2460056],[85.7888621,20.2460383],[85.7887803,20.2455099]]}},{"type":"Feature","properties":{"@id":"way/1469298906","power":"substation"},"geometry":{"type":"LineString","coordinates":[[85.7928008,20.2579586],[85.7925295,20.2575112],[85.7928885,20.2573768],[85.7930654,20.2578701],[85.7928008,20.2579586]]}},{"type":"Feature","properties":{"@id":"way/1474769934","plant:method":"photovoltaic","plant:output:electricity":"yes","plant:source":"solar","power":"plant"},"geometry":{"type":"LineString","coordinates":[[85.822009,20.2419157],[85.8220134,20.2417426],[85.8221625,20.2417459],[85.8221666,20.2415826],[85.8223201,20.241586],[85.8223265,20.2413317],[85.8224731,20.241335],[85.8224772,20.2411727],[85.8226308,20.2411761],[85.8226351,20.2410064],[85.8227974,20.2410101],[85.8228031,20.2407854],[85.8229305,20.2407882],[85.8229236,20.2410576],[85.8227656,20.2410541],[85.8227636,20.2411322],[85.8229156,20.2411356],[85.8229024,20.2416515],[85.8227698,20.2416485],[85.822767,20.2417598],[85.822467,20.241753],[85.822464,20.2418738],[85.8223091,20.2418703],[85.8223078,20.2419224],[85.822009,20.2419157]]}},{"type":"Feature","properties":{"@id":"way/1474769935","plant:method":"photovoltaic","plant:output:electricity":"yes","plant:source":"solar","power":"plant"},"geometry":{"type":"LineString","coordinates":[[85.8229641,20.2415774],[85.8230097,20.2406164],[85.8231425,20.240622],[85.82314,20.2406734],[85.8232832,20.2406795],[85.8232759,20.240833],[85.8234363,20.2408398],[85.8234277,20.241019],[85.8235697,20.241025],[85.8235617,20.2411923],[85.8237318,20.2411995],[85.823724,20.241364],[85.8235792,20.2413579],[85.8235759,20.2414266],[85.8234276,20.2414203],[85.8234247,20.2414814],[85.8232691,20.2414749],[85.823266,20.24154],[85.8231198,20.2415339],[85.8231174,20.2415838],[85.8229641,20.2415774]]}}]}